ATLAS CENTAUR 2         
1 00694U 63047A   26193.22921271  .00000714  00000+0  76104-4 0  9999
2 00694  30.3509 219.3458 0545713  98.3657 267.9159 14.12561798149249
THOR AGENA D R/B        
1 00733U 64002A   26192.99534669  .00000084  00000+0  47277-4 0  9998
2 00733  99.1155 213.0653 0031761 256.1952 103.5695 14.34075232256118
SL-3 R/B                
1 00877U 64053B   26192.75982793  .00000037  00000+0  31505-4 0  9997
2 00877  65.0781 327.4618 0080375 253.4073 105.8190 14.61438423284924
SL-8 R/B                
1 02802U 67045B   26193.20524466  .00000128  00000+0  43033-4 0  9991
2 02802  74.0112 115.5335 0063003  93.0203 267.8167 14.45694503107018
SL-8 R/B                
1 03230U 68040B   26193.12922164  .00001341  00000+0  99748-4 0  9993
2 03230  74.0292  59.2764 0025222 207.9670 152.0165 15.03931509108714
OAO 2                   
1 03597U 68110A   26193.23416047  .00000100  00000+0  32093-4 0  9999
2 03597  34.9937 289.8279 0004897 118.6147 241.5037 14.47361181 37156
ISIS 1                  
1 03669U 69009A   26193.24150902  .00000027  00000+0  12940-4 0  9990
2 03669  88.4451 141.6483 1707095 197.6187 155.7823 11.30436309362609
SERT 2                  
1 04327U 70009A   26193.23874956 -.00000028  00000+0  18205-4 0  9997
2 04327  99.2841 129.6076 0004419 197.0028 328.4293 13.58740826796802
SL-3 R/B                
1 05118U 71028B   26193.27901740  .00035587  00000+0  26760-3 0  9995
2 05118  81.2317 256.8854 0014547 192.1436 167.9474 15.72230480  8181
ASTEX 1                 
1 05560U 71089A   26192.97017712  .00000203  00000+0  51741-4 0  9991
2 05560  92.7004 191.8373 0016729  32.6237 327.5999 14.50870049880323
SL-8 R/B                
1 05730U 71119B   26193.24295567  .00003977  00000+0  20483-3 0  9990
2 05730  73.8884 302.4880 0542866 243.4167 111.0395 14.39710222673409
OAO 3 (COPERNICUS)      
1 06153U 72065A   26193.32678811  .00000145  00000+0  34029-4 0  9993
2 06153  35.0064 307.1617 0005920 100.5677 286.8151 14.60073933864423
ATLAS CENTAUR R/B       
1 06155U 72065B   26193.34053913  .00000401  00000+0  57678-4 0  9997
2 06155  35.0020 295.0773 0033834 338.8132  21.1167 14.77963446859710
SL-8 R/B                
1 08459U 75112B   26192.87259733  .00000122  00000+0  48592-4 0  9992
2 08459  74.0604 150.4605 0016328 213.9612 146.0498 14.38257037649724
SL-3 R/B                
1 10114U 77057B   26193.23125614  .00006531  00000+0  12516-3 0  9990
2 10114  97.5846  10.9954 0006902 180.6673 179.4569 15.48371358687584
SEASAT 1                
1 10967U 78064A   26193.00165950  .00000045  00000+0  51134-4 0  9991
2 10967 108.0182  26.3808 0001153 251.2196 108.8824 14.46259042524489
SL-14 R/B               
1 11267U 79011B   26193.32478278  .00000306  00000+0  27618-4 0  9993
2 11267  82.5252 338.2967 0016049   6.7524 353.3909 14.92036613547367
SL-8 R/B                
1 11574U 79089B   26193.03459187  .00000104  00000+0  39318-4 0  9991
2 11574  74.0670 220.8603 0015878 356.4992   3.6050 14.42414159454037
SL-14 R/B               
1 11672U 80005B   26192.95025534  .00000303  00000+0  27984-4 0  9992
2 11672  82.5135 189.3495 0017264 107.4003 252.9106 14.91048383495001
SL-8 R/B                
1 12139U 81003B   26192.92768713  .00010924  00000+0  25945-3 0  9994
2 12139  82.9363 174.7735 0250134 104.9576 257.9494 15.14986980333460
SL-3 R/B                
1 12465U 81046B   26193.26232097  .00007541  00000+0  16002-3 0  9997
2 12465  81.2308 139.8511 0015930 308.3961  51.5852 15.44735464457643
SL-3 R/B                
1 12904U 81103B   26193.22740957  .00002027  00000+0  86304-4 0  9991
2 12904  81.1578  67.2107 0011859 222.5137 137.5178 15.22475248992177
SL-3 R/B                
1 13068U 82013B   26193.19110771  .00002544  00000+0  10648-3 0  9996
2 13068  81.1732  14.7025 0022835 118.1324 242.2220 15.22948027423295
SL-3 R/B                
1 13154U 82039B   26193.27167867  .00001893  00000+0  11194-3 0  9990
2 13154  81.1506  72.1080 0028009 268.5427  91.2590 15.10687711400443
SL-3 R/B                
1 13403U 82079B   26193.16632482  .00002760  00000+0  10539-3 0  9995
2 13403  81.1449  45.9352 0024969 103.3728 257.0292 15.25995365396670
SL-14 R/B               
1 13553U 82092B   26192.97289242  .00000249  00000+0  25124-4 0  9993
2 13553  82.5667  25.1066 0018853 247.2115 274.8977 14.86763521347393
SL-3 R/B                
1 13819U 83010B   26193.04978403  .00008822  00000+0  15711-3 0  9997
2 13819  81.0994 209.3285 0013524 335.3640  24.6959 15.49855381377183
SL-3 R/B                
1 14208U 83075B   26193.20352948  .00006265  00000+0  15320-3 0  9994
2 14208  97.6104 202.7375 0021959 139.6972 220.5907 15.40941991349311
COSMOS 1536             
1 14699U 84013A   26192.83097980  .00004265  00000+0  16764-3 0  9992
2 14699  82.5451 344.2933 0013620 200.2695 159.8004 15.25318961291538
SL-14 R/B               
1 14820U 84027B   26193.26290347  .00000212  00000+0  21450-4 0  9990
2 14820  82.5431 128.2033 0016364 282.2297  77.7086 14.86077954266135
