OBJECT_NAME,OBJECT_ID,EPOCH,MEAN_MOTION,ECCENTRICITY,INCLINATION,RA_OF_ASC_NODE,ARG_OF_PERICENTER,MEAN_ANOMALY,EPHEMERIS_TYPE,CLASSIFICATION_TYPE,NORAD_CAT_ID,ELEMENT_SET_NO,REV_AT_EPOCH,BSTAR,MEAN_MOTION_DOT,MEAN_MOTION_DDOT
ATLAS CENTAUR 2,1963-047A,2026-07-12T05:30:03.978144,14.12561798,.05457138,30.3509,219.3458,98.3657,267.9159,0,U,694,999,14924,.76103964E-4,.714E-5,0
THOR AGENA D R/B,1964-002A,2026-07-11T23:53:17.954016,14.34075232,.00317616,99.1155,213.0653,256.1952,103.5695,0,U,733,999,25611,.47276819E-4,.84E-6,0
SL-3 R/B,1964-053B,2026-07-11T18:14:09.133152,14.61438423,.00803757,65.0781,327.4618,253.4073,105.8190,0,U,877,999,28492,.31505372E-4,.37E-6,0
SL-8 R/B,1967-045B,2026-07-12T04:55:33.138624,14.45694503,.00630032,74.0112,115.5335,93.0203,267.8167,0,U,2802,999,10701,.43033439E-4,.128E-5,0
SL-8 R/B,1968-040B,2026-07-12T03:06:04.749696,15.03931509,.00252229,74.0292,59.2764,207.9670,152.0165,0,U,3230,999,10871,.99748153E-4,.1341E-4,0
OAO 2,1968-110A,2026-07-12T05:37:11.464608,14.47361181,.00048974,34.9937,289.8279,118.6147,241.5037,0,U,3597,999,3715,.32092814E-4,.1E-5,0
ISIS 1,1969-009A,2026-07-12T05:47:46.379328,11.30436309,.17070959,88.4451,141.6483,197.6187,155.7823,0,U,3669,999,36260,.12939864E-4,.27E-6,0
SERT 2,1970-009A,2026-07-12T05:43:47.961984,13.58740826,.00044194,99.2841,129.6076,197.0028,328.4293,0,U,4327,999,79680,.18204928E-4,-.28E-6,0
SL-3 R/B,1971-028B,2026-07-12T06:41:47.103360,15.72230480,.00145473,81.2317,256.8854,192.1436,167.9474,0,U,5118,999,818,.26759618E-3,.35587E-3,0
ASTEX 1,1971-089A,2026-07-11T23:17:03.303168,14.50870049,.0016729,92.7004,191.8373,32.6237,327.5999,0,U,5560,999,88032,.51741E-4,.203E-5,0
SL-8 R/B,1971-119B,2026-07-12T05:49:51.369888,14.39710222,.05428664,73.8884,302.4880,243.4167,111.0395,0,U,5730,999,67340,.2048251E-3,.3977E-4,0
OAO 3 (COPERNICUS),1972-065A,2026-07-12T07:50:34.492704,14.60073933,.00059204,35.0064,307.1617,100.5677,286.8151,0,U,6153,999,86442,.34028723E-4,.145E-5,0
ATLAS CENTAUR R/B,1972-065B,2026-07-12T08:10:22.580832,14.77963446,.00338343,35.0020,295.0773,338.8132,21.1167,0,U,6155,999,85971,.57678231E-4,.401E-5,0
SL-8 R/B,1975-112B,2026-07-11T20:56:32.409312,14.38257037,.00163286,74.0604,150.4605,213.9612,146.0498,0,U,8459,999,64972,.48592489E-4,.122E-5,0
SL-3 R/B,1977-057B,2026-07-12T05:33:00.530496,15.48371358,.00069022,97.5846,10.9954,180.6673,179.4569,0,U,10114,999,68758,.12516102E-3,.6531E-4,0
SEASAT 1,1978-064A,2026-07-12T00:02:23.380800,14.46259042,.0001153,108.0182,26.3808,251.2196,108.8824,0,U,10967,999,52448,.51134277E-4,.45E-6,0
SL-14 R/B,1979-011B,2026-07-12T07:47:41.232192,14.92036613,.00160495,82.5252,338.2967,6.7524,353.3909,0,U,11267,999,54736,.2761837E-4,.306E-5,0
SL-8 R/B,1979-089B,2026-07-12T00:49:48.737568,14.42414159,.00158788,74.0670,220.8603,356.4992,3.6050,0,U,11574,999,45403,.39317768E-4,.104E-5,0
SL-14 R/B,1980-005B,2026-07-11T22:48:22.061376,14.91048383,.00172647,82.5135,189.3495,107.4003,252.9106,0,U,11672,999,49500,.27983602E-4,.303E-5,0
SL-8 R/B,1981-003B,2026-07-11T22:15:52.168032,15.14986980,.0250134,82.9363,174.7735,104.9576,257.9494,0,U,12139,999,33346,.25945E-3,.10924E-3,0
SL-3 R/B,1981-046B,2026-07-12T06:17:44.531808,15.44735464,.00159309,81.2308,139.8511,308.3961,51.5852,0,U,12465,999,45764,.16002493E-3,.7541E-4,0
SL-3 R/B,1981-103B,2026-07-12T05:27:28.186848,15.22475248,.00118594,81.1578,67.2107,222.5137,137.5178,0,U,12904,999,99217,.86303551E-4,.2027E-4,0
SL-3 R/B,1982-013B,2026-07-12T04:35:11.706144,15.22948027,.00228357,81.1732,14.7025,118.1324,242.2220,0,U,13068,999,42329,.10648498E-3,.2544E-4,0
SL-3 R/B,1982-039B,2026-07-12T06:31:13.037088,15.10687711,.00280093,81.1506,72.1080,268.5427,91.2590,0,U,13154,999,40044,.11193991E-3,.1893E-4,0
SL-3 R/B,1982-079B,2026-07-12T03:59:30.464448,15.25995365,.00249698,81.1449,45.9352,103.3728,257.0292,0,U,13403,999,39667,.10539208E-3,.276E-4,0
SL-14 R/B,1982-092B,2026-07-11T23:20:57.905088,14.86763521,.0018853,82.5667,25.1066,247.2115,274.8977,0,U,13553,999,34739,.25124E-4,.249E-5,0
SL-3 R/B,1983-010B,2026-07-12T01:11:41.340192,15.49855381,.0013524,81.0994,209.3285,335.3640,24.6959,0,U,13819,999,37718,.15710604E-3,.8822E-4,0
SL-3 R/B,1983-075B,2026-07-12T04:53:04.947072,15.40941991,.00219593,97.6104,202.7375,139.6972,220.5907,0,U,14208,999,34931,.15320404E-3,.6265E-4,0
COSMOS 1536,1984-013A,2026-07-11T19:56:36.654720,15.25318961,.00136207,82.5451,344.2933,200.2695,159.8004,0,U,14699,999,29153,.1676448E-3,.4265E-4,0
SL-14 R/B,1984-027B,2026-07-12T06:18:34.859808,14.86077954,.00163642,82.5431,128.2033,282.2297,77.7086,0,U,14820,999,26613,.21450136E-4,.212E-5,0
